start=new Date('2023-04-05T00:00:00.000Z').valueOf();
sats=[{"OBJECT_ID":"2022-099K","ECCENTRICITY":"0.00012520","CENTER_NAME":"EARTH","EPOCH":"2023-04-04T20:50:37.120416","SEMIMAJOR_AXIS":"6941.143","MEAN_MOTION_DDOT":"0.0000000000000","NORAD_CAT_ID":"53474","COUNTRY_CODE":"US","OBJECT_TYPE":"PAYLOAD","ELEMENT_SET_NO":"999","SITE":"AFWTR","RCS_SIZE":"LARGE","REF_FRAME":"TEME","LAUNCH_DATE":"2022-08-12","PERIOD":"95.919","TLE_LINE1":"1 53474U 22099K   23094.86848519  .00003159  00000-0  25044-3 0  9998","DECAY_DATE":null,"EPHEMERIS_TYPE":"0","REV_AT_EPOCH":"3547","INCLINATION":"97.6546","CLASSIFICATION_TYPE":"U","MEAN_ELEMENT_THEORY":"SGP4","TLE_LINE2":"2 53474  97.6546 217.0075 0001252  98.0157 262.1210 15.01261148 35476","BSTAR":"0.00025044000000","TIME_SYSTEM":"UTC","GP_ID":"229497972","MEAN_MOTION_DOT":"0.00003159","RA_OF_ASC_NODE":"217.0075","FILE":"3880211","MEAN_ANOMALY":"262.1210","ARG_OF_PERICENTER":"98.0157","MEAN_MOTION":"15.01261148","PERIAPSIS":"562.139","OBJECT_NAME":"STARLINK-4445","APOAPSIS":"563.877"},{"LAUNCH_DATE":"2022-08-12","RCS_SIZE":"LARGE","REF_FRAME":"TEME","PERIOD":"95.920","TLE_LINE1":"1 53475U 22099L   23094.87379462 -.00002161  00000-0 -16373-3 0  9995","COUNTRY_CODE":"US","SITE":"AFWTR","OBJECT_TYPE":"PAYLOAD","ELEMENT_SET_NO":"999","SEMIMAJOR_AXIS":"6941.164","MEAN_MOTION_DDOT":"0.0000000000000","ECCENTRICITY":"0.00016750","EPOCH":"2023-04-04T20:58:15.855168","CENTER_NAME":"EARTH","NORAD_CAT_ID":"53475","OBJECT_ID":"2022-099L","MEAN_MOTION":"15.01254479","APOAPSIS":"564.192","OBJECT_NAME":"STARLINK-4389","PERIAPSIS":"561.866","MEAN_MOTION_DOT":"-0.00002161","RA_OF_ASC_NODE":"217.0139","MEAN_ANOMALY":"284.7986","ARG_OF_PERICENTER":"75.3423","FILE":"3880177","MEAN_ELEMENT_THEORY":"SGP4","TLE_LINE2":"2 53475  97.6556 217.0139 0001675  75.3423 284.7986 15.01254479 35718","CLASSIFICATION_TYPE":"U","INCLINATION":"97.6556","GP_ID":"229472958","TIME_SYSTEM":"UTC","BSTAR":"-0.00016373000000","DECAY_DATE":null,"EPHEMERIS_TYPE":"0","REV_AT_EPOCH":"3571"},{"LAUNCH_DATE":"2022-08-12","RCS_SIZE":"LARGE","REF_FRAME":"TEME","PERIOD":"95.920","TLE_LINE1":"1 53476U 22099M   23094.87749863 -.00003754  00000-0 -28790-3 0  9997","COUNTRY_CODE":"US","SITE":"AFWTR","OBJECT_TYPE":"PAYLOAD","ELEMENT_SET_NO":"999","SEMIMAJOR_AXIS":"6941.177","MEAN_MOTION_DDOT":"0.0000000000000","ECCENTRICITY":"0.00016620","EPOCH":"2023-04-04T21:03:35.881632","CENTER_NAME":"EARTH","NORAD_CAT_ID":"53476","OBJECT_ID":"2022-099M","MEAN_MOTION":"15.01250329","APOAPSIS":"564.195","OBJECT_NAME":"STARLINK-4378","PERIAPSIS":"561.888","MEAN_MOTION_DOT":"-0.00003754","RA_OF_ASC_NODE":"217.0164","MEAN_ANOMALY":"260.9235","ARG_OF_PERICENTER":"99.2178","FILE":"3880211","MEAN_ELEMENT_THEORY":"SGP4","TLE_LINE2":"2 53476  97.6544 217.0164 0001662  99.2178 260.9235 15.01250329 35478","INCLINATION":"97.6544","CLASSIFICATION_TYPE":"U","TIME_SYSTEM":"UTC","GP_ID":"229496472","BSTAR":"-0.00028790000000","DECAY_DATE":null,"EPHEMERIS_TYPE":"0","REV_AT_EPOCH":"3547"},{"TLE_LINE1":"1 53477U 22099N   23094.87009399  .00001826  00000-0  14670-3 0  9999","PERIOD":"95.919","LAUNCH_DATE":"2022-08-12","REF_FRAME":"TEME","RCS_SIZE":"LARGE","SITE":"AFWTR","ELEMENT_SET_NO":"999","OBJECT_TYPE":"PAYLOAD","COUNTRY_CODE":"US","NORAD_CAT_ID":"53477","MEAN_MOTION_DDOT":"0.0000000000000","SEMIMAJOR_AXIS":"6941.148","CENTER_NAME":"EARTH","EPOCH":"2023-04-04T20:52:56.120736","ECCENTRICITY":"0.00017840","OBJECT_ID":"2022-099N","APOAPSIS":"564.251","PERIAPSIS":"561.774","OBJECT_NAME":"STARLINK-4412","MEAN_MOTION":"15.01259697","ARG_OF_PERICENTER":"104.8719","MEAN_ANOMALY":"255.2702","FILE":"3880211","RA_OF_ASC_NODE":"217.0083","MEAN_MOTION_DOT":"0.00001826","TIME_SYSTEM":"UTC","GP_ID":"229497724","BSTAR":"0.00014670000000","TLE_LINE2":"2 53477  97.6546 217.0083 0001784 104.8719 255.2702 15.01259697 36171","MEAN_ELEMENT_THEORY":"SGP4","CLASSIFICATION_TYPE":"U","INCLINATION":"97.6546","EPHEMERIS_TYPE":"0","REV_AT_EPOCH":"3617","DECAY_DATE":null},{"RA_OF_ASC_NODE":"217.0146","MEAN_MOTION_DOT":"0.00007742","FILE":"3880211","MEAN_ANOMALY":"248.7034","ARG_OF_PERICENTER":"111.4420","MEAN_MOTION":"15.01265167","PERIAPSIS":"561.502","OBJECT_NAME":"STARLINK-4433","APOAPSIS":"564.490","DECAY_DATE":null,"REV_AT_EPOCH":"3547","EPHEMERIS_TYPE":"0","INCLINATION":"97.6539","CLASSIFICATION_TYPE":"U","MEAN_ELEMENT_THEORY":"SGP4","TLE_LINE2":"2 53478  97.6539 217.0146 0002152 111.4420 248.7034 15.01265167 35473","BSTAR":"0.00060657000000","GP_ID":"229497472","TIME_SYSTEM":"UTC","COUNTRY_CODE":"US","ELEMENT_SET_NO":"999","OBJECT_TYPE":"PAYLOAD","SITE":"AFWTR","REF_FRAME":"TEME","RCS_SIZE":"LARGE","LAUNCH_DATE":"2022-08-12","TLE_LINE1":"1 53478U 22099P   23094.87589299  .00007742  00000-0  60657-3 0  9991","PERIOD":"95.919","OBJECT_ID":"2022-099P","EPOCH":"2023-04-04T21:01:17.154336","CENTER_NAME":"EARTH","ECCENTRICITY":"0.00021520","MEAN_MOTION_DDOT":"0.0000000000000","SEMIMAJOR_AXIS":"6941.131","NORAD_CAT_ID":"53478"},{"MEAN_ELEMENT_THEORY":"SGP4","TLE_LINE2":"2 53479  97.6551 217.0074 0001320 100.6470 259.4903 15.01265010 35470","CLASSIFICATION_TYPE":"U","INCLINATION":"97.6551","TIME_SYSTEM":"UTC","GP_ID":"229496723","BSTAR":"0.00028028000000","DECAY_DATE":null,"REV_AT_EPOCH":"3547","EPHEMERIS_TYPE":"0","MEAN_MOTION":"15.01265010","APOAPSIS":"563.913","OBJECT_NAME":"STARLINK-4436","PERIAPSIS":"562.080","RA_OF_ASC_NODE":"217.0074","MEAN_MOTION_DOT":"0.00003543","ARG_OF_PERICENTER":"100.6470","MEAN_ANOMALY":"259.4903","FILE":"3880211","MEAN_MOTION_DDOT":"0.0000000000000","SEMIMAJOR_AXIS":"6941.131","EPOCH":"2023-04-04T20:50:16.647936","CENTER_NAME":"EARTH","ECCENTRICITY":"0.00013200","NORAD_CAT_ID":"53479","OBJECT_ID":"2022-099Q","LAUNCH_DATE":"2022-08-12","REF_FRAME":"TEME","RCS_SIZE":"LARGE","TLE_LINE1":"1 53479U 22099Q   23094.86824824  .00003543  00000-0  28028-3 0  9998","PERIOD":"95.919","COUNTRY_CODE":"US","SITE":"AFWTR","ELEMENT_SET_NO":"999","OBJECT_TYPE":"PAYLOAD"},{"OBJECT_ID":"2022-099R","CENTER_NAME":"EARTH","EPOCH":"2023-04-04T20:55:35.955552","ECCENTRICITY":"0.00023110","MEAN_MOTION_DDOT":"0.0000000000000","SEMIMAJOR_AXIS":"6941.138","NORAD_CAT_ID":"53480","COUNTRY_CODE":"US","ELEMENT_SET_NO":"999","OBJECT_TYPE":"PAYLOAD","SITE":"AFWTR","REF_FRAME":"TEME","RCS_SIZE":"LARGE","LAUNCH_DATE":"2022-08-12","TLE_LINE1":"1 53480U 22099R   23094.87194393  .00000648  00000-0  55075-4 0  9998","PERIOD":"95.919","DECAY_DATE":null,"EPHEMERIS_TYPE":"0","REV_AT_EPOCH":"3547","INCLINATION":"97.6551","CLASSIFICATION_TYPE":"U","MEAN_ELEMENT_THEORY":"SGP4","TLE_LINE2":"2 53480  97.6551 217.0113 0002311 116.7271 243.4190 15.01262998 35477","BSTAR":"0.00005507500000","GP_ID":"229496973","TIME_SYSTEM":"UTC","RA_OF_ASC_NODE":"217.0113","MEAN_MOTION_DOT":"0.00000648","FILE":"3880211","MEAN_ANOMALY":"243.4190","ARG_OF_PERICENTER":"116.7271","MEAN_MOTION":"15.01262998","OBJECT_NAME":"STARLINK-4442","PERIAPSIS":"561.399","APOAPSIS":"564.607"},{"ELEMENT_SET_NO":"999","OBJECT_TYPE":"PAYLOAD","SITE":"AFWTR","COUNTRY_CODE":"US","TLE_LINE1":"1 53481U 22099S   23094.86638986  .00001254  00000-0  10223-3 0  9998","PERIOD":"95.920","REF_FRAME":"TEME","RCS_SIZE":"LARGE","LAUNCH_DATE":"2022-08-12","OBJECT_ID":"2022-099S","NORAD_CAT_ID":"53481","CENTER_NAME":"EARTH","EPOCH":"2023-04-04T20:47:36.083904","ECCENTRICITY":"0.00017900","MEAN_MOTION_DDOT":"0.0000000000000","SEMIMAJOR_AXIS":"6941.153","FILE":"3880211","ARG_OF_PERICENTER":"40.7795","MEAN_ANOMALY":"319.3563","RA_OF_ASC_NODE":"217.0042","MEAN_MOTION_DOT":"0.00001254","OBJECT_NAME":"STARLINK-4302","PERIAPSIS":"561.775","APOAPSIS":"564.260","MEAN_MOTION":"15.01258078","EPHEMERIS_TYPE":"0","REV_AT_EPOCH":"3547","DECAY_DATE":null,"BSTAR":"0.00010223000000","GP_ID":"229497224","TIME_SYSTEM":"UTC","CLASSIFICATION_TYPE":"U","INCLINATION":"97.6550","MEAN_ELEMENT_THEORY":"SGP4","TLE_LINE2":"2 53481  97.6550 217.0042 0001790  40.7795 319.3563 15.01258078 35476"},{"MEAN_MOTION_DOT":"-0.00000124","RA_OF_ASC_NODE":"217.0042","MEAN_ANOMALY":"288.3180","ARG_OF_PERICENTER":"71.8195","FILE":"3880211","MEAN_MOTION":"15.01256223","APOAPSIS":"563.983","OBJECT_NAME":"STARLINK-4360","PERIAPSIS":"562.064","DECAY_DATE":null,"REV_AT_EPOCH":"3547","EPHEMERIS_TYPE":"0","TLE_LINE2":"2 53482  97.6549 217.0042 0001382  71.8195 288.3180 15.01256223 35471","MEAN_ELEMENT_THEORY":"SGP4","CLASSIFICATION_TYPE":"U","INCLINATION":"97.6549","TIME_SYSTEM":"UTC","GP_ID":"229497973","BSTAR":"-0.00000504000000","COUNTRY_CODE":"US","SITE":"AFWTR","OBJECT_TYPE":"PAYLOAD","ELEMENT_SET_NO":"999","LAUNCH_DATE":"2022-08-12","RCS_SIZE":"LARGE","REF_FRAME":"TEME","PERIOD":"95.920","TLE_LINE1":"1 53482U 22099T   23094.86663666 -.00000124  00000-0 -50400-5 0  9992","OBJECT_ID":"2022-099T","SEMIMAJOR_AXIS":"6941.158","MEAN_MOTION_DDOT":"0.0000000000000","ECCENTRICITY":"0.00013820","CENTER_NAME":"EARTH","EPOCH":"2023-04-04T20:47:57.407424","NORAD_CAT_ID":"53482"},{"OBJECT_ID":"2022-099U","NORAD_CAT_ID":"53483","SEMIMAJOR_AXIS":"6941.148","MEAN_MOTION_DDOT":"0.0000000000000","ECCENTRICITY":"0.00022540","EPOCH":"2023-04-04T20:39:57.451968","CENTER_NAME":"EARTH","SITE":"AFWTR","OBJECT_TYPE":"PAYLOAD","ELEMENT_SET_NO":"999","COUNTRY_CODE":"US","PERIOD":"95.919","TLE_LINE1":"1 53483U 22099U   23094.86108162 -.00000326  00000-0 -20793-4 0  9993","LAUNCH_DATE":"2022-08-12","RCS_SIZE":"LARGE","REF_FRAME":"TEME","REV_AT_EPOCH":"3547","EPHEMERIS_TYPE":"0","DECAY_DATE":null,"GP_ID":"229496224","TIME_SYSTEM":"UTC","BSTAR":"-0.00002079300000","TLE_LINE2":"2 53483  97.6542 216.9979 0002254 124.7826 235.3611 15.01259601 35474","MEAN_ELEMENT_THEORY":"SGP4","CLASSIFICATION_TYPE":"U","INCLINATION":"97.6542","ARG_OF_PERICENTER":"124.7826","MEAN_ANOMALY":"235.3611","FILE":"3880211","MEAN_MOTION_DOT":"-0.00000326","RA_OF_ASC_NODE":"216.9979","APOAPSIS":"564.578","OBJECT_NAME":"STARLINK-4401","PERIAPSIS":"561.449","MEAN_MOTION":"15.01259601"}];
